0 DELTA 1 DEB
1 09975U 73086GE  13281.56096218  .00000649  00000-0  50754-2 0  5130
2 09975 102.4713 043.6747 0090883 042.4474 020.3628 12.40992696517938
0 DELTA 1 DEB
1 09975U 73086GE  13282.86352260  .00000636  00000-0  49797-2 0  5148
2 09975 102.4711 045.0105 0090789 039.8954 079.8307 12.40996028518092
0 DELTA 1 DEB
1 09975U 73086GE  13285.92688174  .00000759  00000-0  58770-2 0  5163
2 09975 102.4708 048.1516 0090669 033.8759 086.0926 12.41000035518476
0 DELTA 1 DEB
1 09975U 73086GE  13287.20678956  .00000751  00000-0  58177-2 0  5177
2 09975 102.4711 049.4644 0090650 031.4097 044.3343 12.40999686518631
0 DELTA 1 DEB
1 09975U 73086GE  13288.57540664  .00000832  00000-0  64075-2 0  5187
2 09975 102.4712 050.8676 0090635 028.7010 038.9880 12.41002324518809
0 DELTA 1 DEB
1 09975U 73086GE  13289.79785074  .00000748  00000-0  57954-2 0  5193
2 09975 102.4713 052.1213 0090629 026.3370 100.5268 12.41004143518951
0 DELTA 1 DEB
1 09975U 73086GE  13290.84530115  .00000755  00000-0  58459-2 0  5206
2 09975 102.4712 053.1956 0090639 024.3557 100.2081 12.41006250519087
0 DELTA 1 DEB
1 09975U 73086GE  13291.89173957  .00000790  00000-0  60992-2 0  5214
2 09975 102.4710 054.2689 0090657 022.2280 095.5239 12.41007213519216
0 DELTA 1 DEB
1 09975U 73086GE  13293.90668104  .00000841  00000-0  64760-2 0  5226
2 09975 102.4706 056.3353 0090713 018.2722 097.8268 12.41012124519462
0 DELTA 1 DEB
1 09975U 73086GE  13295.26717531  .00000888  00000-0  68161-2 0  5237
2 09975 102.4705 057.7307 0090777 015.6609 056.1648 12.41014539519631
